[{"OBJECT_NAME":"FLOCK 4BE-22","OBJECT_ID":"2024-149AC","EPOCH":"2026-03-05T17:24:08.670240","MEAN_MOTION":15.37538149,"ECCENTRICITY":0.00027381,"INCLINATION":97.3783,"RA_OF_ASC_NODE":147.5546,"ARG_OF_PERICENTER":277.9396,"MEAN_ANOMALY":82.1538,"EPHEMERIS_TYPE":0,"CLASSIFICATION_TYPE":"U","NORAD_CAT_ID":60494,"ELEMENT_SET_NO":999,"REV_AT_EPOCH":8638,"BSTAR":0.00062316187,"MEAN_MOTION_DOT":0.0002291,"MEAN_MOTION_DDOT":0},{"OBJECT_NAME":"FLOCK 4BE-34","OBJECT_ID":"2024-149AD","EPOCH":"2026-03-05T22:37:59.420640","MEAN_MOTION":15.37819881,"ECCENTRICITY":0.00023031,"INCLINATION":97.3825,"RA_OF_ASC_NODE":148.5188,"ARG_OF_PERICENTER":280.1837,"MEAN_ANOMALY":79.9148,"EPHEMERIS_TYPE":0,"CLASSIFICATION_TYPE":"U","NORAD_CAT_ID":60495,"ELEMENT_SET_NO":999,"REV_AT_EPOCH":8644,"BSTAR":0.00045938,"MEAN_MOTION_DOT":0.00017008,"MEAN_MOTION_DDOT":0},{"OBJECT_NAME":"FLOCK 4BE-32","OBJECT_ID":"2024-149AF","EPOCH":"2026-03-05T21:32:02.753376","MEAN_MOTION":15.38276372,"ECCENTRICITY":0.00026792,"INCLINATION":97.377,"RA_OF_ASC_NODE":147.9794,"ARG_OF_PERICENTER":280.383,"MEAN_ANOMALY":79.7113,"EPHEMERIS_TYPE":0,"CLASSIFICATION_TYPE":"U","NORAD_CAT_ID":60497,"ELEMENT_SET_NO":999,"REV_AT_EPOCH":8643,"BSTAR":0.00056649019,"MEAN_MOTION_DOT":0.00021319,"MEAN_MOTION_DDOT":0},{"OBJECT_NAME":"FLOCK 4BE-30","OBJECT_ID":"2024-149AH","EPOCH":"2026-03-05T04:36:57.652416","MEAN_MOTION":15.38054269,"ECCENTRICITY":0.00020141,"INCLINATION":97.3851,"RA_OF_ASC_NODE":147.8291,"ARG_OF_PERICENTER":284.1286,"MEAN_ANOMALY":75.9735,"EPHEMERIS_TYPE":0,"CLASSIFICATION_TYPE":"U","NORAD_CAT_ID":60499,"ELEMENT_SET_NO":999,"REV_AT_EPOCH":8570,"BSTAR":0.00050618374,"MEAN_MOTION_DOT":0.00018897,"MEAN_MOTION_DDOT":0},{"OBJECT_NAME":"FLOCK 4BE-11","OBJECT_ID":"2024-149AK","EPOCH":"2026-03-05T04:01:14.000160","MEAN_MOTION":15.39066,"ECCENTRICITY":0.00030248,"INCLINATION":97.3752,"RA_OF_ASC_NODE":147.3717,"ARG_OF_PERICENTER":284.2425,"MEAN_ANOMALY":75.8484,"EPHEMERIS_TYPE":0,"CLASSIFICATION_TYPE":"U","NORAD_CAT_ID":60501,"ELEMENT_SET_NO":999,"REV_AT_EPOCH":8633,"BSTAR":0.00066364924,"MEAN_MOTION_DOT":0.00025655,"MEAN_MOTION_DDOT":0},{"OBJECT_NAME":"FLOCK 4BE-24","OBJECT_ID":"2024-149AP","EPOCH":"2026-03-05T11:22:19.920288","MEAN_MOTION":15.3894732,"ECCENTRICITY":0.0002925,"INCLINATION":97.3767,"RA_OF_ASC_NODE":147.9262,"ARG_OF_PERICENTER":293.8468,"MEAN_ANOMALY":66.2471,"EPHEMERIS_TYPE":0,"CLASSIFICATION_TYPE":"U","NORAD_CAT_ID":60505,"ELEMENT_SET_NO":999,"REV_AT_EPOCH":8639,"BSTAR":0.00064214,"MEAN_MOTION_DOT":0.00024722,"MEAN_MOTION_DDOT":0},{"OBJECT_NAME":"TANAGER-1","OBJECT_ID":"2024-149AR","EPOCH":"2026-03-05T08:23:36.927744","MEAN_MOTION":15.43548696,"ECCENTRICITY":0.0006725,"INCLINATION":97.377,"RA_OF_ASC_NODE":157.6642,"ARG_OF_PERICENTER":235.9479,"MEAN_ANOMALY":124.1131,"EPHEMERIS_TYPE":0,"CLASSIFICATION_TYPE":"U","NORAD_CAT_ID":60507,"ELEMENT_SET_NO":999,"REV_AT_EPOCH":8701,"BSTAR":0.00012407,"MEAN_MOTION_DOT":5.482e-5,"MEAN_MOTION_DDOT":0},{"OBJECT_NAME":"FLOCK 4BE-29","OBJECT_ID":"2024-149AT","EPOCH":"2026-03-05T16:46:25.146624","MEAN_MOTION":15.40232206,"ECCENTRICITY":0.0001938,"INCLINATION":97.3852,"RA_OF_ASC_NODE":149.2876,"ARG_OF_PERICENTER":311.5151,"MEAN_ANOMALY":48.5929,"EPHEMERIS_TYPE":0,"CLASSIFICATION_TYPE":"U","NORAD_CAT_ID":60509,"ELEMENT_SET_NO":999,"REV_AT_EPOCH":8646,"BSTAR":0.0007022419,"MEAN_MOTION_DOT":0.00028217,"MEAN_MOTION_DDOT":0},{"OBJECT_NAME":"FLOCK 4BE-2","OBJECT_ID":"2024-149AV","EPOCH":"2026-03-05T17:43:18.333696","MEAN_MOTION":15.42789267,"ECCENTRICITY":0.00027748,"INCLINATION":97.3855,"RA_OF_ASC_NODE":149.8909,"ARG_OF_PERICENTER":290.0933,"MEAN_ANOMALY":70.0016,"EPHEMERIS_TYPE":0,"CLASSIFICATION_TYPE":"U","NORAD_CAT_ID":60511,"ELEMENT_SET_NO":999,"REV_AT_EPOCH":8650,"BSTAR":0.0011409919,"MEAN_MOTION_DOT":0.00050106,"MEAN_MOTION_DDOT":0},{"OBJECT_NAME":"FLOCK 4BE-13","OBJECT_ID":"2024-149AW","EPOCH":"2026-03-05T19:18:26.046432","MEAN_MOTION":15.38645164,"ECCENTRICITY":0.00034198,"INCLINATION":97.3769,"RA_OF_ASC_NODE":148.3617,"ARG_OF_PERICENTER":283.6673,"MEAN_ANOMALY":76.4191,"EPHEMERIS_TYPE":0,"CLASSIFICATION_TYPE":"U","NORAD_CAT_ID":60512,"ELEMENT_SET_NO":999,"REV_AT_EPOCH":8645,"BSTAR":0.00054452249,"MEAN_MOTION_DOT":0.00020736,"MEAN_MOTION_DDOT":0},{"OBJECT_NAME":"FLOCK 4BE-27","OBJECT_ID":"2024-149AX","EPOCH":"2026-03-05T16:55:29.324064","MEAN_MOTION":15.32483669,"ECCENTRICITY":0.00028564,"INCLINATION":97.3873,"RA_OF_ASC_NODE":146.6369,"ARG_OF_PERICENTER":326.0647,"MEAN_ANOMALY":34.0412,"EPHEMERIS_TYPE":0,"CLASSIFICATION_TYPE":"U","NORAD_CAT_ID":60513,"ELEMENT_SET_NO":999,"REV_AT_EPOCH":8628,"BSTAR":0.00042148502,"MEAN_MOTION_DOT":0.00013152,"MEAN_MOTION_DDOT":0},{"OBJECT_NAME":"FLOCK 4BE-9","OBJECT_ID":"2024-149AY","EPOCH":"2026-03-05T15:45:33.763392","MEAN_MOTION":15.37417003,"ECCENTRICITY":0.00015852,"INCLINATION":97.3835,"RA_OF_ASC_NODE":148.1647,"ARG_OF_PERICENTER":320.216,"MEAN_ANOMALY":39.8968,"EPHEMERIS_TYPE":0,"CLASSIFICATION_TYPE":"U","NORAD_CAT_ID":60514,"ELEMENT_SET_NO":999,"REV_AT_EPOCH":8639,"BSTAR":0.00053664274,"MEAN_MOTION_DOT":0.00019631,"MEAN_MOTION_DDOT":0},{"OBJECT_NAME":"FLOCK 4BE-6","OBJECT_ID":"2024-149BA","EPOCH":"2026-03-05T19:23:34.623168","MEAN_MOTION":15.36465888,"ECCENTRICITY":0.00023484,"INCLINATION":97.3839,"RA_OF_ASC_NODE":147.8481,"ARG_OF_PERICENTER":311.6517,"MEAN_ANOMALY":48.4526,"EPHEMERIS_TYPE":0,"CLASSIFICATION_TYPE":"U","NORAD_CAT_ID":60516,"ELEMENT_SET_NO":999,"REV_AT_EPOCH":8638,"BSTAR":0.00049075979,"MEAN_MOTION_DOT":0.00017399,"MEAN_MOTION_DDOT":0},{"OBJECT_NAME":"FLOCK 4BE-14","OBJECT_ID":"2024-149BB","EPOCH":"2026-03-05T19:25:25.018176","MEAN_MOTION":15.37512053,"ECCENTRICITY":0.00032717,"INCLINATION":97.3751,"RA_OF_ASC_NODE":147.9199,"ARG_OF_PERICENTER":307.621,"MEAN_ANOMALY":52.4737,"EPHEMERIS_TYPE":0,"CLASSIFICATION_TYPE":"U","NORAD_CAT_ID":60517,"ELEMENT_SET_NO":999,"REV_AT_EPOCH":8642,"BSTAR":0.00049490813,"MEAN_MOTION_DOT":0.00018152,"MEAN_MOTION_DDOT":0},{"OBJECT_NAME":"FLOCK 4BE-1","OBJECT_ID":"2024-149BC","EPOCH":"2026-03-05T15:56:15.384480","MEAN_MOTION":15.38773894,"ECCENTRICITY":0.00031865,"INCLINATION":97.3826,"RA_OF_ASC_NODE":148.7064,"ARG_OF_PERICENTER":304.1556,"MEAN_ANOMALY":55.9387,"EPHEMERIS_TYPE":0,"CLASSIFICATION_TYPE":"U","NORAD_CAT_ID":60518,"ELEMENT_SET_NO":999,"REV_AT_EPOCH":8643,"BSTAR":0.00058749147,"MEAN_MOTION_DOT":0.00022477,"MEAN_MOTION_DDOT":0},{"OBJECT_NAME":"FLOCK 4BE-28","OBJECT_ID":"2024-149BD","EPOCH":"2026-03-05T16:41:43.362528","MEAN_MOTION":15.40791829,"ECCENTRICITY":0.00035228,"INCLINATION":97.379,"RA_OF_ASC_NODE":149.1621,"ARG_OF_PERICENTER":303.2517,"MEAN_ANOMALY":56.8391,"EPHEMERIS_TYPE":0,"CLASSIFICATION_TYPE":"U","NORAD_CAT_ID":60519,"ELEMENT_SET_NO":999,"REV_AT_EPOCH":8648,"BSTAR":0.00067342589,"MEAN_MOTION_DOT":0.00027561,"MEAN_MOTION_DDOT":0}]
