FLOCK 4BE-22            
1 60494U 24149AC  26064.72510035  .00022910  00000+0  62316-3 0  9998
2 60494  97.3783 147.5546 0002738 277.9396  82.1538 15.37538149 86385
FLOCK 4BE-34            
1 60495U 24149AD  26064.94304885  .00017008  00000+0  45938-3 0  9990
2 60495  97.3825 148.5188 0002303 280.1837  79.9148 15.37819881 86443
FLOCK 4BE-32            
1 60497U 24149AF  26064.89725409  .00021319  00000+0  56649-3 0  9996
2 60497  97.3770 147.9794 0002679 280.3830  79.7113 15.38276372 86433
FLOCK 4BE-30            
1 60499U 24149AH  26064.19233394  .00018897  00000+0  50618-3 0  9995
2 60499  97.3851 147.8291 0002014 284.1286  75.9735 15.38054269 85702
FLOCK 4BE-11            
1 60501U 24149AK  26064.16752315  .00025655  00000+0  66365-3 0  9991
2 60501  97.3752 147.3717 0003024 284.2425  75.8484 15.39066000 86339
FLOCK 4BE-24            
1 60505U 24149AP  26064.47384167  .00024722  00000+0  64214-3 0  9990
2 60505  97.3767 147.9262 0002925 293.8468  66.2471 15.38947320 86390
TANAGER-1               
1 60507U 24149AR  26064.34973296  .00005482  00000+0  12407-3 0  9994
2 60507  97.3770 157.6642 0006725 235.9479 124.1131 15.43548696 87013
FLOCK 4BE-29            
1 60509U 24149AT  26064.69890216  .00028217  00000+0  70224-3 0  9996
2 60509  97.3852 149.2876 0001938 311.5151  48.5929 15.40232206 86467
FLOCK 4BE-2             
1 60511U 24149AV  26064.73840664  .00050106  00000+0  11410-2 0  9999
2 60511  97.3855 149.8909 0002774 290.0933  70.0016 15.42789267 86502
FLOCK 4BE-13            
1 60512U 24149AW  26064.80446813  .00020736  00000+0  54452-3 0  9996
2 60512  97.3769 148.3617 0003419 283.6673  76.4191 15.38645164 86453
FLOCK 4BE-27            
1 60513U 24149AX  26064.70520051  .00013152  00000+0  42149-3 0  9997
2 60513  97.3873 146.6369 0002856 326.0647  34.0412 15.32483669 86283
FLOCK 4BE-9             
1 60514U 24149AY  26064.65664078  .00019631  00000+0  53664-3 0  9992
2 60514  97.3835 148.1647 0001585 320.2160  39.8968 15.37417003 86397
FLOCK 4BE-6             
1 60516U 24149BA  26064.80803962  .00017399  00000+0  49076-3 0  9999
2 60516  97.3839 147.8481 0002348 311.6517  48.4526 15.36465888 86381
FLOCK 4BE-14            
1 60517U 24149BB  26064.80931734  .00018152  00000+0  49491-3 0  9998
2 60517  97.3751 147.9199 0003271 307.6210  52.4737 15.37512053 86425
FLOCK 4BE-1             
1 60518U 24149BC  26064.66406695  .00022477  00000+0  58749-3 0  9997
2 60518  97.3826 148.7064 0003186 304.1556  55.9387 15.38773894 86432
FLOCK 4BE-28            
1 60519U 24149BD  26064.69564077  .00027561  00000+0  67343-3 0  9999
2 60519  97.3790 149.1621 0003522 303.2517  56.8391 15.40791829 86489
